CTC2_L_00556016-05
1 71647U 26176NS  26037.47798611  .00000000  00000+0  00000-0 0  9997
2 71647  98.8000 180.0000 0000000   0.0000 270.0000 14.15679836    11
CTC2_L_00556016-06
1 71648U 22501FD  26037.47798611  .00000000  00000+0  00000-0 0  9996
2 71648  98.8000 180.0000 0000000   0.0000 315.0000 14.15679836    12
CTC2_L_00556016-07
1 71649U 22103KS  26037.47798611  .00000000  00000+0  00000-0 0  9995
2 71649  98.8000 180.0000 0000000   0.0000   0.0000 14.15679836    14
CTC2_L_00556016-08
1 71650U 23985YS  26037.47798611  .00000000  00000+0  00000-0 0  9996
2 71650  98.8000 180.0000 0000000   0.0000  45.0000 14.15679836    15
CTC2_L_00556017-01
1 71651U 22947OU  26037.47798611  .00000000  00000+0  00000-0 0  9994
2 71651  98.8000 192.0000 0000000   0.0000  96.0000 14.15679836    15
CTC2_L_00556017-02
1 71652U 23027UL  26037.47798611  .00000000  00000+0  00000-0 0  9995
2 71652  98.8000 192.0000 0000000   0.0000 141.0000 14.15679836    17
CTC2_L_00556017-03
1 71653U 26968XX  26037.47798611  .00000000  00000+0  00000-0 0  9993
2 71653  98.8000 192.0000 0000000   0.0000 186.0000 14.15679836    17
CTC2_L_00556017-04
1 71654U 22643KE  26037.47798611  .00000000  00000+0  00000-0 0  9990
2 71654  98.8000 192.0000 0000000   0.0000 231.0000 14.15679836    19
CTC2_L_00556017-05
1 71655U 22489XN  26037.47798611  .00000000  00000+0  00000-0 0  9999
2 71655  98.8000 192.0000 0000000   0.0000 276.0000 14.15679836    19
CTC2_L_00556017-06
1 71656U 24846BJ  26037.47798611  .00000000  00000+0  00000-0 0  9999
2 71656  98.8000 192.0000 0000000   0.0000 321.0000 14.15679836    11
CTC2_L_00556017-07
1 71657U 26825SY  26037.47798611  .00000000  00000+0  00000-0 0  9999
2 71657  98.8000 192.0000 0000000   0.0000   6.0000 14.15679836    12
CTC2_L_00556017-08
1 71658U 24093QO  26037.47798611  .00000000  00000+0  00000-0 0  9995
2 71658  98.8000 192.0000 0000000   0.0000  51.0000 14.15679836    13
CTC2_L_00556018-01
1 71659U 26084ZC  26037.47798611  .00000000  00000+0  00000-0 0  9998
2 71659  98.8000 204.0000 0000000   0.0000 102.0000 14.15679836    15
CTC2_L_00556018-02
1 71660U 22792HS  26037.47798611  .00000000  00000+0  00000-0 0  9992
2 71660  98.8000 204.0000 0000000   0.0000 147.0000 14.15679836    16
CTC2_L_00556018-03
1 71661U 22708XR  26037.47798611  .00000000  00000+0  00000-0 0  9990
2 71661  98.8000 204.0000 0000000   0.0000 192.0000 14.15679836    17
CTC2_L_00556018-04
1 71662U 26773GI  26037.47798611  .00000000  00000+0  00000-0 0  9997
2 71662  98.8000 204.0000 0000000   0.0000 237.0000 14.15679836    18
CTC2_L_00556018-05
1 71663U 23993TF  26037.47798611  .00000000  00000+0  00000-0 0  9999
2 71663  98.8000 204.0000 0000000   0.0000 282.0000 14.15679836    19
CTC2_L_00556018-06
1 71664U 22286SL  26037.47798611  .00000000  00000+0  00000-0 0  9994
2 71664  98.8000 204.0000 0000000   0.0000 327.0000 14.15679836    10
CTC2_L_00556018-07
1 71665U 26799HU  26037.47798611  .00000000  00000+0  00000-0 0  9998
2 71665  98.8000 204.0000 0000000   0.0000  12.0000 14.15679836    12
CTC2_L_00556018-08
1 71666U 26614HS  26037.47798611  .00000000  00000+0  00000-0 0  9995
2 71666  98.8000 204.0000 0000000   0.0000  57.0000 14.15679836    12
CTC2_L_00556019-01
1 71667U 25617DJ  26037.47798611  .00000000  00000+0  00000-0 0  9998
2 71667  98.8000 216.0000 0000000   0.0000 108.0000 14.15679836    13
CTC2_L_00556019-02
1 71668U 22268LA  26037.47798611  .00000000  00000+0  00000-0 0  9998
2 71668  98.8000 216.0000 0000000   0.0000 153.0000 14.15679836    14
CTC2_L_00556019-03
1 71669U 26686ZT  26037.47798611  .00000000  00000+0  00000-0 0  9997
2 71669  98.8000 216.0000 0000000   0.0000 198.0000 14.15679836    14
CTC2_L_00556019-04
1 71670U 25143FC  26037.47798611  .00000000  00000+0  00000-0 0  9996
2 71670  98.8000 216.0000 0000000   0.0000 243.0000 14.15679836    17
CTC2_L_00556019-05
1 71671U 26871PV  26037.47798611  .00000000  00000+0  00000-0 0  9996
2 71671  98.8000 216.0000 0000000   0.0000 288.0000 14.15679836    17
CTC2_L_00556019-06
1 71672U 26299EX  26037.47798611  .00000000  00000+0  00000-0 0  9991
2 71672  98.8000 216.0000 0000000   0.0000 333.0000 14.15679836    19
CTC2_L_00556019-07
1 71673U 22656ZH  26037.47798611  .00000000  00000+0  00000-0 0  9995
2 71673  98.8000 216.0000 0000000   0.0000  18.0000 14.15679836    10
CTC2_L_00556019-08
1 71674U 22709XJ  26037.47798611  .00000000  00000+0  00000-0 0  9995
2 71674  98.8000 216.0000 0000000   0.0000  63.0000 14.15679836    11
CTC2_L_00556020-01
1 71675U 24270CH  26037.47798611  .00000000  00000+0  00000-0 0  9991
2 71675  98.8000 228.0000 0000000   0.0000 114.0000 14.15679836    12
CTC2_L_00556020-02
1 71676U 24031O   26037.47798611  .00000000  00000+0  00000-0 0  9997
2 71676  98.8000 228.0000 0000000   0.0000 159.0000 14.15679836    12
CTC2_L_00556020-03
1 71677U 22709NH  26037.47798611  .00000000  00000+0  00000-0 0  9998
2 71677  98.8000 228.0000 0000000   0.0000 204.0000 14.15679836    14
CTC2_L_00556020-04
1 71678U 22062HI  26037.47798611  .00000000  00000+0  00000-0 0  9991
2 71678  98.8000 228.0000 0000000   0.0000 249.0000 14.15679836    14
CTC2_L_00556020-05
1 71679U 23648XO  26037.47798611  .00000000  00000+0  00000-0 0  9993
2 71679  98.8000 228.0000 0000000   0.0000 294.0000 14.15679836    15
CTC2_L_00556020-06
1 71680U 25971OS  26037.47798611  .00000000  00000+0  00000-0 0  9996
2 71680  98.8000 228.0000 0000000   0.0000 339.0000 14.15679836    17
CTC2_L_00556020-07
1 71681U 26428NU  26037.47798611  .00000000  00000+0  00000-0 0  9995
2 71681  98.8000 228.0000 0000000   0.0000  24.0000 14.15679836    19
CTC2_L_00556020-08
1 71682U 24574X   26037.47798611  .00000000  00000+0  00000-0 0  9996
2 71682  98.8000 228.0000 0000000   0.0000  69.0000 14.15679836    19
CTC2_L_00556021-01
1 71683U 26313QX  26037.47798611  .00000000  00000+0  00000-0 0  9990
2 71683  98.8000 240.0000 0000000   0.0000 120.0000 14.15679836    12
CTC2_L_00556021-02
1 71684U 25315RZ  26037.47798611  .00000000  00000+0  00000-0 0  9992
2 71684  98.8000 240.0000 0000000   0.0000 165.0000 14.15679836    12
CTC2_L_00556021-03
1 71685U 26202SN  26037.47798611  .00000000  00000+0  00000-0 0  9999
2 71685  98.8000 240.0000 0000000   0.0000 210.0000 14.15679836    14
CTC2_L_00556021-04
1 71686U 25380E   26037.47798611  .00000000  00000+0  00000-0 0  9996
2 71686  98.8000 240.0000 0000000   0.0000 255.0000 14.15679836    14
CTC2_L_00556021-05
1 71687U 23081ZG  26037.47798611  .00000000  00000+0  00000-0 0  9993
2 71687  98.8000 240.0000 0000000   0.0000 300.0000 14.15679836    16
CTC2_L_00556021-06
1 71688U 23952TV  26037.47798611  .00000000  00000+0  00000-0 0  9991
2 71688  98.8000 240.0000 0000000   0.0000 345.0000 14.15679836    16
CTC2_L_00556021-07
1 71689U 22238NT  26037.47798611  .00000000  00000+0  00000-0 0  9998
2 71689  98.8000 240.0000 0000000   0.0000  30.0000 14.15679836    18
CTC2_L_00556021-08
1 71690U 25522H   26037.47798611  .00000000  00000+0  00000-0 0  9999
2 71690  98.8000 240.0000 0000000   0.0000  75.0000 14.15679836    19
CTC2_L_00556022-01
1 71691U 22923SX  26037.47798611  .00000000  00000+0  00000-0 0  9992
2 71691  98.8000 252.0000 0000000   0.0000 126.0000 14.15679836    10
CTC2_L_00556022-02
1 71692U 26347EZ  26037.47798611  .00000000  00000+0  00000-0 0  9997
2 71692  98.8000 252.0000 0000000   0.0000 171.0000 14.15679836    11
CTC2_L_00556022-03
1 71693U 24600DA  26037.47798611  .00000000  00000+0  00000-0 0  9998
2 71693  98.8000 252.0000 0000000   0.0000 216.0000 14.15679836    12
CTC2_L_00556022-04
1 71694U 22269RC  26037.47798611  .00000000  00000+0  00000-0 0  9998
2 71694  98.8000 252.0000 0000000   0.0000 261.0000 14.15679836    13
CTC2_L_00556022-05
1 71695U 26149B   26037.47798611  .00000000  00000+0  00000-0 0  9990
2 71695  98.8000 252.0000 0000000   0.0000 306.0000 14.15679836    14
CTC2_L_00556022-06
1 71696U 22211DF  26037.47798611  .00000000  00000+0  00000-0 0  9997
2 71696  98.8000 252.0000 0000000   0.0000 351.0000 14.15679836    15
CTC2_L_00556022-07
1 71697U 26141UM  26037.47798611  .00000000  00000+0  00000-0 0  9994
2 71697  98.8000 252.0000 0000000   0.0000  36.0000 14.15679836    16
CTC2_L_00556022-08
1 71698U 23405IK  26037.47798611  .00000000  00000+0  00000-0 0  9995
2 71698  98.8000 252.0000 0000000   0.0000  81.0000 14.15679836    17
CTC2_L_00556023-01
1 71699U 24391UH  26037.47798611  .00000000  00000+0  00000-0 0  9991
2 71699  98.8000 264.0000 0000000   0.0000 132.0000 14.15679836    18
CTC2_L_00556023-02
1 71700U 25249IT  26037.47798611  .00000000  00000+0  00000-0 0  9997
2 71700  98.8000 264.0000 0000000   0.0000 177.0000 14.15679836    10
CTC2_L_00556023-03
1 71701U 24745LX  26037.47798611  .00000000  00000+0  00000-0 0  9998
2 71701  98.8000 264.0000 0000000   0.0000 222.0000 14.15679836    12
CTC2_L_00556023-04
1 71702U 25909WZ  26037.47798611  .00000000  00000+0  00000-0 0  9992
2 71702  98.8000 264.0000 0000000   0.0000 267.0000 14.15679836    12
CTC2_L_00556023-05
1 71703U 26831BS  26037.47798611  .00000000  00000+0  00000-0 0  9998
2 71703  98.8000 264.0000 0000000   0.0000 312.0000 14.15679836    14
CTC2_L_00556023-06
1 71704U 22552WF  26037.47798611  .00000000  00000+0  00000-0 0  9995
2 71704  98.8000 264.0000 0000000   0.0000 357.0000 14.15679836    14
CTC2_L_00556023-07
1 71705U 25030PG  26037.47798611  .00000000  00000+0  00000-0 0  9990
2 71705  98.8000 264.0000 0000000   0.0000  42.0000 14.15679836    16
CTC2_L_00556023-08
1 71706U 23090O   26037.47798611  .00000000  00000+0  00000-0 0  9995
2 71706  98.8000 264.0000 0000000   0.0000  87.0000 14.15679836    16
CTC2_L_00556024-01
1 71707U 26649DQ  26037.47798611  .00000000  00000+0  00000-0 0  9999
2 71707  98.8000 276.0000 0000000   0.0000 138.0000 14.15679836    17
CTC2_L_00556024-02
1 71708U 24966DU  26037.47798611  .00000000  00000+0  00000-0 0  9990
2 71708  98.8000 276.0000 0000000   0.0000 183.0000 14.15679836    18
